[{"OBJECT_NAME":"STARLINK-2613","OBJECT_ID":"2021-038A","EPOCH":"2026-03-09T23:20:47.617440","MEAN_MOTION":15.30188507,"ECCENTRICITY":0.00014319,"INCLINATION":53.1597,"RA_OF_ASC_NODE":356.81,"ARG_OF_PERICENTER":90.2263,"MEAN_ANOMALY":269.8902,"EPHEMERIS_TYPE":0,"CLASSIFICATION_TYPE":"U","NORAD_CAT_ID":48353,"ELEMENT_SET_NO":999,"REV_AT_EPOCH":26712,"BSTAR":-0.00010741321,"MEAN_MOTION_DOT":-3.538e-5,"MEAN_MOTION_DDOT":0},{"OBJECT_NAME":"OBJECT Y","OBJECT_ID":"2023-085Y","EPOCH":"2026-03-09T22:38:54.992256","MEAN_MOTION":15.32500153,"ECCENTRICITY":0.00063298,"INCLINATION":97.4849,"RA_OF_ASC_NODE":180.8653,"ARG_OF_PERICENTER":67.4431,"MEAN_ANOMALY":292.748,"EPHEMERIS_TYPE":0,"CLASSIFICATION_TYPE":"U","NORAD_CAT_ID":57026,"ELEMENT_SET_NO":999,"REV_AT_EPOCH":15160,"BSTAR":0.00065512761,"MEAN_MOTION_DOT":0.00020524,"MEAN_MOTION_DDOT":0}]
